INMARSAT 4-F2 (SOUTHPA*)
1 28899U 05044A   26199.62686265 -.00000269  00000+0  00000+0 0  9993
2 28899   5.1356  43.6784 0002852  60.9664 200.9444  1.00271304 75832
GSAT-8 (GAGAN/PRN 127)  
1 37605U 11022A   26199.85515461  .00000077  00000+0  00000+0 0  9991
2 37605   2.2112  81.4381 0002486 156.5679  61.5854  1.00271355 53534
LUCH 5A (SDCM/PRN 140)  
1 37951U 11074B   26199.53772206 -.00000060  00000+0  00000+0 0  9992
2 37951   8.8316  73.3451 0002741  60.5783 163.0027  1.00273792 53366
SES-5 (EGNOS/PRN 136)   
1 38652U 12036A   26199.33810419  .00000026  00000+0  00000+0 0  9998
2 38652   0.0443 322.9360 0001959 155.1766 304.7160  1.00271541 44760
GSAT-10 (GAGAN/PRN 128) 
1 38779U 12051B   26199.87470700 -.00000171  00000+0  00000+0 0  9991
2 38779   0.0811 264.2462 0007520 191.0157 239.3053  1.00272775 50416
LUCH 5B (SDCM/PRN 125)  
1 38977U 12061A   26199.33403083 -.00000149  00000+0  00000+0 0  9998
2 38977  10.5496  49.5701 0003835 147.0481 203.4789  1.00270293 49911
ASTRA 5B (EGNOS/PRN 123)
1 39617U 14011B   26199.83586453  .00000130  00000+0  00000+0 0  9994
2 39617   0.0689 306.2731 0002026 179.1336 135.5839  1.00270161 44980
LUCH 5V (SDCM/PRN 141)  
1 39727U 14023A   26199.86261924 -.00000277  00000+0  00000+0 0  9998
2 39727   5.2094  69.4150 0002105  83.3325 189.1903  1.00272383 44675
GSAT-15 (GAGAN/PRN 139) 
1 41028U 15065A   26199.75183605 -.00000264  00000+0  00000+0 0  9995
2 41028   0.1083 263.7579 0003507 176.1140 220.8418  1.00272301 39118
EUTELSAT 117 WEST B (W*)
1 41589U 16038B   26199.38527765 -.00000019  00000+0  00000+0 0  9994
2 41589   0.0115 198.1908 0000163 318.2964 161.4185  1.00271609 36972
SES-15 (WAAS/PRN 133)   
1 42709U 17026A   26199.59419865  .00000053  00000+0  00000+0 0  9998
2 42709   0.0275 325.4278 0000419 131.0445 284.6731  1.00268239  7741
QZS-2 (QZSS/PRN 194)    
1 42738U 17028A   26199.43831785 -.00000149  00000+0  00000+0 0  9991
2 42738  39.3821 242.6931 0757128 269.6378  84.1694  1.00275918  7945
QZS-3 (QZSS/PRN 199)    
1 42917U 17048A   26199.71881041 -.00000355  00000+0  00000+0 0  9992
2 42917   0.0609 210.7122 0002680 276.0018 195.6121  1.00270737 32574
QZS-4 (QZSS/PRN 195)    
1 42965U 17062A   26199.63387118 -.00000358  00000+0  00000+0 0  9991
2 42965  40.0895 343.0840 0747101 268.6460  52.1747  1.00289733 32114
BEIDOU-3 G1 (PRN 130)   
1 43683U 18085A   26199.84352690 -.00000116  00000+0  00000+0 0  9997
2 43683   2.9470  96.5163 0008062 356.8054 306.9638  1.00272509 28376
EUTELSAT 5 WEST B (EGN*)
1 44624U 19067A   26199.79072490 -.00000049  00000+0  00000+0 0  9990
2 44624   0.0783 320.3585 0003100 157.4287  98.4504  1.00271159 24758
BEIDOU-3 G2 (PRN 144)   
1 45344U 20017A   26199.74901104 -.00000148  00000+0  00000+0 0  9995
2 45344   2.9271  47.7925 0001801  59.1114 179.3024  1.00272380 23574
BEIDOU-3 G3 (PRN 143)   
1 45807U 20040A   26199.71551705 -.00000361  00000+0  00000+0 0  9997
2 45807   2.5232  67.4992 0002228 309.4166 287.6963  1.00274773 22387
GALAXY 30 (WAAS/PRN 135)
1 46114U 20056C   26199.59419865  .00000030  00000+0  00000+0 0  9994
2 46114   0.0188  55.7560 0002222  63.4658 266.0802  1.00272702 21607
QZS-1R (QZSS/PRN 196)   
1 49336U 21096A   26199.57058939 -.00000316  00000+0  00000+0 0  9995
2 49336  37.5244  79.1164 0755440 272.2947 281.6932  1.00244289 17322
QZS-6 (QZSS/PRN 200)    
1 62876U 25023A   26199.84930141 -.00000240  00000+0  00000+0 0  9993
2 62876   0.0111  34.9418 0001886  79.6341 218.2776  1.00274631  5266
